NORAD_CAT_ID,OBJECT_NAME,OBJECT_TYPE,EPOCH,MEAN_MOTION,ECCENTRICITY,INCLINATION,RA_OF_ASC_NODE,ARG_OF_PERICENTER,MEAN_ANOMALY,BSTAR,MEAN_MOTION_DOT,MEAN_MOTION_DDOT,TLE_LINE0,TLE_LINE1,TLE_LINE2,SEMIMAJOR_AXIS,PERIOD,APOGEE,PERIGEE,DECAYED
56792.0,STARLINK-6046,PAYLOAD,2024-08-12 19:14:52,14.98363385,0.0002499,70.0023,351.5841,275.6155,84.4719,0.00029795,3.467e-05,0.0,0 STARLINK-6046,1 56792U 23078AB  24225.80200193  .00003467  00000-0  29795-3 0  9992,2 56792  70.0023 351.5841 0002499 275.6155  84.4719 14.98363385 66976,6950.09,96.105,573.691,570.218,0.0
56792.0,STARLINK-6046,PAYLOAD,2024-08-13 01:39:27,14.98342126,0.0001606,70.002,350.9103,273.3263,86.7712,-5.6167e-05,-7.63e-06,0.0,0 STARLINK-6046,1 56792U 23078AB  24226.06906316 -.00000763  00000-0 -56167-4 0  9993,2 56792  70.0020 350.9103 0001606 273.3263  86.7712 14.98342126 67015,6950.155,96.106,573.137,570.904,0.0
56792.0,STARLINK-6046,PAYLOAD,2024-08-13 09:40:10,14.98295718,0.0002693,70.0021,350.0699,263.9332,96.152,-0.00025019,-3.074e-05,0.0,0 STARLINK-6046,1 56792U 23078AB  24226.40289570 -.00003074  00000-0 -25019-3 0  9996,2 56792  70.0021 350.0699 0002693 263.9332  96.1520 14.98295718 67067,6950.299,96.109,574.036,570.292,0.0
56792.0,STARLINK-6046,PAYLOAD,2024-08-13 14:28:34,14.9829737,0.0002807,70.0007,349.5655,268.6228,91.4609,-0.00015649,-1.958e-05,0.0,0 STARLINK-6046,1 56792U 23078AB  24226.60317670 -.00001958  00000-0 -15649-3 0  9998,2 56792  70.0007 349.5655 0002807 268.6228  91.4609 14.98297370 66835,6950.294,96.109,574.11,570.208,0.0
56792.0,STARLINK-6046,PAYLOAD,2024-08-13 17:40:50,14.98307346,0.00026,69.9962,349.2203,262.7022,97.3841,-0.00033829,-4.125e-05,0.0,0 STARLINK-6046,1 56792U 23078AB  24226.73669483 -.00004125  00000-0 -33829-3 0  9993,2 56792  69.9962 349.2203 0002600 262.7022  97.3841 14.98307346 67116,6950.263,96.108,573.935,570.321,0.0
56792.0,STARLINK-6046,PAYLOAD,2024-08-14 01:41:28,14.98337249,0.000333,69.9991,348.3838,264.8147,95.2632,6.745e-05,7.12e-06,0.0,0 STARLINK-6046,1 56792U 23078AB  24227.07046435  .00000712  00000-0  67450-4 0  9991,2 56792  69.9991 348.3838 0003330 264.8147  95.2632 14.98337249 67169,6950.17,96.107,574.35,569.721,0.0
56792.0,STARLINK-6046,PAYLOAD,2024-08-14 12:54:23,14.98349058,0.0002968,70.0017,347.2078,264.6945,95.3875,0.00015901,1.806e-05,0.0,0 STARLINK-6046,1 56792U 23078AB  24227.53777273  .00001806  00000-0  15901-3 0  9991,2 56792  70.0017 347.2078 0002968 264.6945  95.3875 14.98349058 67234,6950.134,96.106,574.062,569.936,0.0
56792.0,STARLINK-6046,PAYLOAD,2024-08-14 14:30:31,14.98362313,0.0002617,70.0013,347.0385,262.6972,97.389,1.8412e-05,1.27e-06,0.0,0 STARLINK-6046,1 56792U 23078AB  24227.60452710  .00000127  00000-0  18412-4 0  9991,2 56792  70.0013 347.0385 0002617 262.6972  97.3890 14.98362313 66987,6950.093,96.105,573.777,570.139,0.0
56792.0,STARLINK-6046,PAYLOAD,2024-08-14 17:42:50,14.9831344,0.0002516,70.001,346.7005,264.2319,95.8553,-0.00049751,-6.021e-05,0.0,0 STARLINK-6046,1 56792U 23078AB  24227.73808873 -.00006021  00000-0 -49751-3 0  9990,2 56792  70.0010 346.7005 0002516 264.2319  95.8553 14.98313440 67268,6950.244,96.108,573.858,570.36,0.0
56792.0,STARLINK-6046,PAYLOAD,2024-08-15 14:32:37,14.98289479,0.0002812,70.0009,344.5133,262.1066,97.9774,8.3016e-05,8.97e-06,0.0,0 STARLINK-6046,1 56792U 23078AB  24228.60598493  .00000897  00000-0  83016-4 0  9997,2 56792  70.0009 344.5133 0002812 262.1066  97.9774 14.98289479 67137,6950.318,96.11,574.138,570.229,0.0
56792.0,STARLINK-6046,PAYLOAD,2024-08-16 09:46:11,14.98337212,0.0002701,70.0012,342.4933,261.983,98.1023,-3.7123e-07,-9.7e-07,0.0,0 STARLINK-6046,1 56792U 23078AB  24229.40708234 -.00000097  00000-0 -37123-6 0  9996,2 56792  70.0012 342.4933 0002701 261.9830  98.1023 14.98337212 67510,6950.171,96.107,573.913,570.158,0.0
56792.0,STARLINK-6046,PAYLOAD,2024-08-17 08:12:04,14.98336526,0.0002682,69.9993,340.1353,267.8593,92.2259,0.00039753,4.654e-05,0.0,0 STARLINK-6046,1 56792U 23078AB  24230.34172048  .00004654  00000-0  39753-3 0  9998,2 56792  69.9993 340.1353 0002682 267.8593  92.2259 14.98336526 67394,6950.173,96.107,573.902,570.174,0.0
56792.0,STARLINK-6046,PAYLOAD,2024-08-18 13:02:28,14.98363968,0.0002143,70.0091,337.1193,215.9741,144.1274,0.00033231,3.878e-05,0.0,0 STARLINK-6046,1 56792U 23078AB  24231.54338351  .00003878  00000-0  33231-3 0  9994,2 56792  70.0091 337.1193 0002143 215.9741 144.1274 14.98363968 67838,6950.088,96.105,573.442,570.463,0.0
56792.0,STARLINK-6046,PAYLOAD,2024-08-18 16:14:44,14.98359346,0.0002595,70.002,336.7707,258.3266,101.7602,0.00036574,4.277e-05,0.0,0 STARLINK-6046,1 56792U 23078AB  24231.67690050  .00004277  00000-0  36574-3 0  9992,2 56792  70.0020 336.7707 0002595 258.3266 101.7602 14.98359346 67851,6950.102,96.105,573.771,570.164,0.0
56792.0,STARLINK-6046,PAYLOAD,2024-08-19 13:04:30,14.98329598,0.0002604,70.0002,334.5824,263.7589,96.3274,-7.9788e-05,-1.045e-05,0.0,0 STARLINK-6046,1 56792U 23078AB  24232.54479880 -.00001045  00000-0 -79788-4 0  9992,2 56792  70.0002 334.5824 0002604 263.7589  96.3274 14.98329598 67980,6950.194,96.107,573.869,570.249,0.0
56792.0,STARLINK-6046,PAYLOAD,2024-08-20 13:06:30,14.98336579,0.0002673,70.0016,332.058,266.1978,93.8876,3.4588e-05,3.2e-06,0.0,0 STARLINK-6046,1 56792U 23078AB  24233.54618854  .00000320  00000-0  34588-4 0  9991,2 56792  70.0016 332.0580 0002673 266.1978  93.8876 14.98336579 68137,6950.173,96.107,573.895,570.18,0.0
56792.0,STARLINK-6046,PAYLOAD,2024-08-20 14:42:38,14.98340252,0.0002636,70.0019,331.8897,264.7868,95.299,0.00014664,1.658e-05,0.0,0 STARLINK-6046,1 56792U 23078AB  24233.61294636  .00001658  00000-0  14664-3 0  9994,2 56792  70.0019 331.8897 0002636 264.7868  95.2990 14.98340252 67886,6950.161,96.106,573.858,570.194,0.0
56792.0,STARLINK-6046,PAYLOAD,2024-08-20 16:18:47,14.98317369,0.0002622,70.003,331.7233,269.1912,90.8947,-0.00030463,-3.724e-05,0.0,0 STARLINK-6046,1 56792U 23078AB  24233.67971683 -.00003724  00000-0 -30463-3 0  9997,2 56792  70.0030 331.7233 0002622 269.1912  90.8947 14.98317369 68153,6950.232,96.108,573.919,570.275,0.0
56792.0,STARLINK-6046,PAYLOAD,2024-08-21 05:07:51,14.98329857,0.000221,70.0043,330.3792,256.672,103.4193,0.00029426,3.42e-05,0.0,0 STARLINK-6046,1 56792U 23078AB  24234.21379228  .00003420  00000-0  29426-3 0  9993,2 56792  70.0043 330.3792 0002210 256.6720 103.4193 14.98329857 68231,6950.193,96.107,573.594,570.522,0.0
56792.0,STARLINK-6046,PAYLOAD,2024-08-21 11:32:24,14.98318121,0.000246,70.0016,329.703,260.3591,99.729,0.00011709,1.304e-05,0.0,0 STARLINK-6046,1 56792U 23078AB  24234.48084086  .00001304  00000-0  11709-3 0  9991,2 56792  70.0016 329.7030 0002460 260.3591  99.7290 14.98318121 68274,6950.23,96.108,573.804,570.385,0.0
56792.0,STARLINK-6046,PAYLOAD,2024-08-21 14:44:40,14.98318157,0.0002458,70.0012,329.366,263.2466,96.8414,9.5573e-05,1.047e-05,0.0,0 STARLINK-6046,1 56792U 23078AB  24234.61436223  .00001047  00000-0  95573-4 0  9996,2 56792  70.0012 329.3660 0002458 263.2466  96.8414 14.98318157 68034,6950.23,96.108,573.803,570.386,0.0
56792.0,STARLINK-6046,PAYLOAD,2024-08-21 16:20:48,14.98319227,0.0002458,70.0012,329.1978,263.3298,96.7581,0.00010532,1.164e-05,0.0,0 STARLINK-6046,1 56792U 23078AB  24234.68112185  .00001164  00000-0  10532-3 0  9992,2 56792  70.0012 329.1978 0002458 263.3298  96.7581 14.98319227 68042,6950.226,96.108,573.8,570.383,0.0
56792.0,STARLINK-6046,PAYLOAD,2024-08-22 05:09:52,14.98339083,0.0002702,70.0007,327.8513,266.7635,93.3214,6.1232e-05,6.38e-06,0.0,0 STARLINK-6046,1 56792U 23078AB  24235.21519068  .00000638  00000-0  61232-4 0  9992,2 56792  70.0007 327.8513 0002702 266.7635  93.3214 14.98339083 68385,6950.165,96.106,573.908,570.152,0.0
